[{"OBJECT_NAME":"STARLINK-30356","OBJECT_ID":"2023-131S","EPOCH":"2026-03-09T22:00:01.999584","MEAN_MOTION":15.14540357,"ECCENTRICITY":0.00012469,"INCLINATION":42.9999,"RA_OF_ASC_NODE":169.9073,"ARG_OF_PERICENTER":308.0493,"MEAN_ANOMALY":135.3712,"EPHEMERIS_TYPE":0,"CLASSIFICATION_TYPE":"U","NORAD_CAT_ID":57748,"ELEMENT_SET_NO":999,"REV_AT_EPOCH":572,"BSTAR":0.002799611,"MEAN_MOTION_DOT":0.00052692,"MEAN_MOTION_DDOT":0},{"OBJECT_NAME":"NOAA 16 DEB","OBJECT_ID":"2000-055FH","EPOCH":"2026-03-09T12:30:03.934368","MEAN_MOTION":15.16827851,"ECCENTRICITY":0.00080503,"INCLINATION":98.9144,"RA_OF_ASC_NODE":269.3218,"ARG_OF_PERICENTER":278.4203,"MEAN_ANOMALY":81.6113,"EPHEMERIS_TYPE":0,"CLASSIFICATION_TYPE":"U","NORAD_CAT_ID":41257,"ELEMENT_SET_NO":999,"REV_AT_EPOCH":52995,"BSTAR":0.010284054,"MEAN_MOTION_DOT":0.00208024,"MEAN_MOTION_DDOT":0}]
